Coordinates
version=1
nRows=151
nColumns=24
inDegrees=yes

Units are S.I. units (second, meters, Newtons, ...)
If the header above contains a line with 'inDegrees', this indicates whether rotational values are in degrees (yes) or radians (no).

endheader
time	pelvis_tilt	pelvis_list	pelvis_rotation	pelvis_tx	pelvis_ty	pelvis_tz	hip_flexion_r	hip_adduction_r	hip_rotation_r	knee_angle_r	ankle_angle_r	subtalar_angle_r	mtp_angle_r	hip_flexion_l	hip_adduction_l	hip_rotation_l	knee_angle_l	ankle_angle_l	subtalar_angle_l	mtp_angle_l	lumbar_extension	lumbar_bending	lumbar_rotation
      0.00000000	      9.76611466	     -6.17820038	     -3.36938084	      0.61401261	      0.97438937	      0.03755202	    -28.59242800	      4.17831761	      0.46883528	     -6.29676912	      6.26085996	     10.17215230	      0.00000000	     16.59088370	     -9.17081179	     -9.49490210	     -8.23811303	     -3.37425570	     11.37994685	      0.00000000	    -26.91578396	      4.93407824	      2.87777182
      0.01700000	      9.66210988	     -5.85882554	     -3.47149822	      0.61513763	      0.97279204	      0.03516331	    -28.68326708	      3.40436505	     -0.28021510	     -8.10637887	      6.40824733	     11.58321830	      0.00000000	     17.10031970	     -8.57356698	     -8.60190201	    -10.37138862	     -4.78836766	     10.25889597	      0.00000000	    -26.69621760	      4.35966763	      2.72443072
      0.03300000	      9.35717973	     -5.75162760	     -3.47577534	      0.61656891	      0.97118246	      0.03280264	    -28.50254775	      2.90916791	     -0.62593357	     -9.94175829	      6.02140852	     12.59688435	      0.00000000	     17.89063659	     -8.24711625	     -8.38416529	    -12.91871010	     -5.95601919	      9.64443514	      0.00000000	    -26.23186091	      4.05623710	      2.61337244
      0.05000000	      8.94506551	     -5.65244841	     -3.72396423	      0.61795491	      0.96993978	      0.03052388	    -27.82496818	      2.35374193	     -0.61560631	    -12.42034003	      5.42413996	     13.11664753	      0.00000000	     18.73563939	     -8.07362156	     -8.33252249	    -15.52947096	     -6.96615139	      9.02175924	      0.00000000	    -25.70279882	      3.63758979	      2.40132575
      0.06700000	      8.97541024	     -5.40217722	     -3.69533766	      0.62051972	      0.96958009	      0.02780695	    -27.50060227	      1.69900578	     -0.97411711	    -15.10268266	      4.21569244	     13.71650828	      0.00000000	     19.02731483	     -7.70838127	     -7.92183283	    -18.23506632	     -7.25780817	      8.59027056	      0.00000000	    -25.45316844	      3.16140748	      2.11278325
      0.08300000	      8.72599722	     -5.00255596	     -3.57430287	      0.62254135	      0.96996521	      0.02494550	    -26.28146005	      0.99781169	     -1.33710330	    -18.63977621	      2.73757695	     13.95837832	      0.00000000	     19.12440271	     -7.03220565	     -6.92979676	    -20.00849491	     -7.64880839	      7.41370172	      0.00000000	    -25.01849847	      2.55678162	      1.92406522
      0.10000000	      9.15257991	     -4.25467819	     -3.68924630	      0.62601740	      0.97153509	      0.02150393	    -25.39470528	     -0.36991017	     -1.97628392	    -22.77200763	      0.77208007	     14.54514773	      0.00000000	     18.30650527	     -6.19278267	     -7.21926467	    -21.97141357	     -7.03988709	      7.48396311	      0.00000000	    -25.15080936	      1.57079942	      1.67510134
      0.11700000	      9.50837870	     -3.57774654	     -3.23220280	      0.62902481	      0.97363807	      0.01701854	    -24.01069287	     -1.46922068	     -3.27267229	    -27.40433472	     -2.06121180	     14.38937486	      0.00000000	     17.35188585	     -5.22045904	     -7.00807009	    -23.33648379	     -6.36083514	      7.71540479	      0.00000000	    -25.23176242	      0.92300550	      0.83998892
      0.13300000	      9.32393763	     -2.87848253	     -3.22217996	      0.63073103	      0.97530455	      0.01341611	    -21.08852038	     -2.78029688	     -4.19798665	    -33.25852896	     -5.12688586	     13.51461383	      0.00000000	     16.66478998	     -4.37158568	     -7.29287323	    -24.16510390	     -5.52550675	      8.01590508	      0.00000000	    -24.86785814	      0.10423590	      0.37716546
      0.15000000	      8.80482536	     -1.95302712	     -3.17293645	      0.63100390	      0.97671382	      0.00908169	    -17.12826311	     -4.42970045	     -5.21713951	    -39.79152601	     -8.70893302	     11.96262036	      0.00000000	     15.99752982	     -3.05652986	     -7.35801622	    -24.14212331	     -4.84370404	      7.60230475	      0.00000000	    -24.22028759	     -0.77063578	     -0.00066565
      0.16700000	      8.61850421	     -0.73988146	     -2.95250444	      0.63225115	      0.97871901	      0.00497722	    -13.67474490	     -6.35214920	     -6.27894309	    -45.70805560	    -12.29216261	      9.80349460	      0.00000000	     14.60195162	     -1.36656643	     -7.52785582	    -23.54525804	     -3.98322912	      7.33741942	      0.00000000	    -23.87067470	     -1.95482131	     -1.11634849
      0.18300000	      8.10213298	      0.59548084	     -3.14010500	      0.63108420	      0.98030022	      0.00095819	     -9.35600818	     -8.55566327	     -6.69378263	    -51.78172505	    -14.57804047	      7.58759356	      0.00000000	     13.48068057	      0.48639772	     -7.63132140	    -22.48283838	     -3.54912138	      6.53523325	      0.00000000	    -23.35131818	     -3.32643450	     -1.74208045
      0.20000000	      8.11195966	      1.69752449	     -2.96821397	      0.63093041	      0.98275311	     -0.00288437	     -6.09886852	    -10.27222956	     -7.10735654	    -56.81267084	    -15.24908740	      4.70839074	      0.00000000	     11.71215226	      2.12917555	     -7.50742984	    -21.39516567	     -2.95282585	      6.13888819	      0.00000000	    -23.24746940	     -4.32584823	     -2.85818096
      0.21700000	      8.22303533	      2.25623767	     -2.74442810	      0.63032789	      0.98560560	     -0.00649319	     -3.12758942	    -11.18356448	     -7.28541072	    -61.09709335	    -14.33344716	      1.68408300	      0.00000000	      9.84543820	      3.12822147	     -7.26008559	    -20.37142002	     -2.28879108	      6.11169712	      0.00000000	    -23.34006598	     -4.74649241	     -3.49373498
      0.23300000	      8.48646772	      2.68789178	     -2.09357582	      0.63041489	      0.98896912	     -0.01022915	     -0.79071621	    -11.85833378	     -7.84654427	    -64.42525101	    -12.51342678	     -0.63313431	      0.00000000	      7.61148252	      4.01414092	     -6.60152459	    -19.05480647	     -1.77428584	      6.25454237	      0.00000000	    -23.60771287	     -4.89186924	     -4.56650622
      0.25000000	      8.84344892	      3.04905257	     -1.86573511	      0.62932013	      0.99218832	     -0.01273788	      1.71689217	    -12.30790471	     -7.71311155	    -67.29451233	    -10.63709464	     -2.26610568	      0.00000000	      5.17978373	      4.72655656	     -6.14020684	    -17.43315493	     -1.48247083	      6.22890106	      0.00000000	    -23.95923460	     -5.11792286	     -5.32704594
      0.26700000	      8.75338837	      3.34934648	     -1.18756897	      0.62773414	      0.99421785	     -0.01606099	      4.44106821	    -12.82465635	     -8.14874305	    -69.43376539	     -9.00013505	     -2.84657239	      0.00000000	      3.43677121	      5.36951768	     -5.26323375	    -16.14200814	     -1.13357777	      6.12450865	      0.00000000	    -23.89562162	     -5.05429300	     -6.34840977
      0.28300000	      9.14042079	      3.32826063	     -0.57330162	      0.62677189	      0.99700245	     -0.01773300	      6.41114539	    -12.62343094	     -8.27752635	    -70.55993802	     -7.84334546	     -3.15472601	      0.00000000	      1.12471873	      5.41276426	     -5.07498999	    -14.88300816	     -0.63809545	      6.98259912	      0.00000000	    -24.34646259	     -4.83271778	     -7.17027617
      0.30000000	      9.39289172	      3.52645794	      0.02566378	      0.62542458	      0.99916656	     -0.02025519	      8.40857741	    -12.89037538	     -8.45826934	    -71.06053222	     -6.77616520	     -2.15408010	      0.00000000	     -1.18343548	      5.77785796	     -4.51283044	    -13.24018471	     -0.52479240	      7.23244059	      0.00000000	    -24.69543442	     -4.70418655	     -8.08873366
      0.31700000	      9.57796725	      3.67257495	      0.30188304	      0.62284205	      1.00051079	     -0.02165896	     10.64421656	    -12.85676653	     -8.05221730	    -71.03601820	     -5.87047476	     -0.74092691	      0.00000000	     -3.23043187	      5.96810498	     -4.40505191	    -11.83281268	     -0.22135620	      7.86054921	      0.00000000	    -24.98435668	     -4.68354544	     -8.84459128
      0.33300000	      9.80370169	      3.42731299	      1.05578193	      0.62133100	      1.00237763	     -0.02306388	     12.09476969	    -12.51530396	     -8.47080152	    -69.80779799	     -5.08991241	      1.13335522	      0.00000000	     -5.26987344	      5.53772696	     -4.53391514	    -10.66326776	      0.21023298	      9.48520894	      0.00000000	    -25.33627861	     -4.13389264	     -9.52546178
      0.35000000	      9.99250245	      3.34696248	      1.33077025	      0.61871757	      1.00331879	     -0.02393870	     13.71006961	    -12.25803720	     -8.25815586	    -68.12766299	     -3.99875940	      3.05457837	      0.00000000	     -7.21727511	      5.36419053	     -4.72622752	     -9.44903829	      0.57846959	     10.55413833	      0.00000000	    -25.71922611	     -3.87169774	     -9.92694033
      0.36700000	     10.56314716	      3.17983021	      1.46632210	      0.61645616	      1.00461848	     -0.02458380	     14.54780456	    -11.82971611	     -8.06156020	    -65.54172290	     -3.25285561	      4.52941986	      0.00000000	     -9.67453134	      5.07619562	     -5.23488927	     -8.07532822	      0.82878565	     11.85301850	      0.00000000	    -26.39809183	     -3.58089844	     -9.88648910
      0.38300000	     10.89816031	      3.19098006	      1.28091889	      0.61452041	      1.00511138	     -0.02579968	     15.43973166	    -11.68602544	     -7.74776872	    -62.36376521	     -2.59075924	      5.75895700	      0.00000000	    -11.94134532	      5.16565360	     -5.75966094	     -6.59911329	      0.82617326	     12.58825705	      0.00000000	    -26.84938660	     -3.49975437	    -10.13346232
      0.40000000	     11.48112046	      3.36978671	      1.18402288	      0.61217459	      1.00525478	     -0.02685596	     15.78383356	    -11.71625763	     -7.60911380	    -58.61623677	     -1.97339431	      6.09694818	      0.00000000	    -14.48323001	      5.40377379	     -5.98710444	     -5.07977288	      0.80678611	     13.20611871	      0.00000000	    -27.53686616	     -3.50417382	    -10.09297689
      0.41700000	     11.52785232	      3.41769987	      1.26029829	      0.60968581	      1.00475981	     -0.02818875	     16.32414019	    -11.67777008	     -7.96865204	    -54.12029454	     -1.78472436	      5.72549570	      0.00000000	    -16.29684419	      5.51446019	     -5.97214945	     -3.79917286	      0.82151044	     13.49135492	      0.00000000	    -27.81671717	     -3.36195356	    -10.33265872
      0.43300000	     11.49337470	      3.60258443	      1.05685564	      0.60709424	      1.00365240	     -0.02828652	     16.74230806	    -11.60952174	     -8.13557334	    -49.06786304	     -1.68371548	      5.05090811	      0.00000000	    -17.92056847	      5.76602761	     -6.45950040	     -2.68120744	      0.89428545	     14.17079436	      0.00000000	    -27.95944553	     -3.52806105	    -10.17576373
      0.45000000	     11.71615059	      3.93300767	      1.04361620	      0.60491605	      1.00237945	     -0.02881769	     16.44936179	    -11.71567071	     -8.61256997	    -43.44985004	     -1.71104559	      4.22326191	      0.00000000	    -19.80663914	      6.12729717	     -6.50161432	     -1.69114925	      1.05203556	     14.57342549	      0.00000000	    -28.31840971	     -3.72473476	    -10.23802789
      0.46700000	     11.58822586	      4.28216105	      0.88847579	      0.60212076	      1.00027413	     -0.02888676	     16.34581035	    -11.73219371	     -9.01756734	    -37.35685216	     -1.89198599	      3.80574501	      0.00000000	    -21.07227645	      6.53298745	     -6.87659843	     -1.09771014	      1.37341583	     15.15990690	      0.00000000	    -28.32750776	     -3.99232708	    -10.26223166
      0.48300000	     11.21480960	      4.53734217	      1.11485223	      0.59957293	      0.99777902	     -0.02886230	     16.04338866	    -11.67012826	     -9.83874405	    -30.79582786	     -2.09112990	      3.87855620	      0.00000000	    -22.18259949	      6.67507077	     -6.56687790	     -0.36091720	      1.61981249	     15.40835592	      0.00000000	    -28.14740142	     -4.09001609	    -10.36954022
      0.50000000	     10.68220500	      4.83310128	      0.88197949	      0.59742922	      0.99451929	     -0.02750977	     15.88903280	    -11.38876920	    -10.01683442	    -24.14906898	     -2.34072566	      4.38677688	      0.00000000	    -22.95143974	      6.94266709	     -7.31866110	     -0.00653236	      2.10212461	     16.53985556	      0.00000000	    -27.69628153	     -4.47002534	     -9.97709397
      0.51700000	     10.24465285	      5.25178834	      0.74642375	      0.59516600	      0.99104608	     -0.02656197	     15.52815655	    -11.28685650	    -10.00069766	    -17.64615517	     -2.33688059	      5.82457538	      0.00000000	    -23.77630099	      7.31184874	     -7.62439468	      0.25800067	      2.55567926	     17.23835457	      0.00000000	    -27.41160086	     -4.85354616	     -9.94879713
      0.53300000	      9.77822098	      5.58197971	      0.80238562	      0.59336633	      0.98723663	     -0.02537151	     14.98362733	    -11.09720310	     -9.67014344	    -11.35209308	     -2.44428587	      7.13520236	      0.00000000	    -24.50836525	      7.45373590	     -7.70665495	      0.35908666	      3.19418061	     18.02458270	      0.00000000	    -27.01904785	     -5.09720894	     -9.81590816
      0.55000000	      9.53692797	      5.82485661	      0.37005710	      0.59241210	      0.98323696	     -0.02343966	     14.30562331	    -10.76535039	     -8.61463605	     -5.78476803	     -2.43648849	      8.22833935	      0.00000000	    -25.50674321	      7.65506891	     -8.79435476	      0.46700194	      3.78515091	     19.62977920	      0.00000000	    -26.68654524	     -5.41133844	     -9.38615204
      0.56700000	      9.51951107	      5.92572658	      0.27114649	      0.59165773	      0.97964465	     -0.02204208	     13.56562536	    -10.45583331	     -7.12244669	     -1.64545874	     -2.43187349	      8.03428460	      0.00000000	    -26.66637106	      7.55315092	     -9.29505246	      0.39624468	      4.34087515	     20.78142918	      0.00000000	    -26.66486588	     -5.38487983	     -9.09658674
      0.58300000	      9.48961816	      6.15814788	      0.79469706	      0.59039056	      0.97650509	     -0.02107798	     13.32930790	    -10.58361433	     -7.19386599	      0.30328753	     -2.31105628	      8.79740422	      0.00000000	    -27.38426649	      7.20073335	     -9.19274451	     -0.42677217	      4.97397343	     21.72263692	      0.00000000	    -26.84723357	     -5.21261951	     -9.38672048
      0.60000000	      9.46044958	      5.99782297	      0.84837347	      0.59084529	      0.97340248	     -0.01866737	     13.67521307	    -10.13670497	     -6.41278537	      0.08279861	     -2.00091695	      8.05703278	      0.00000000	    -28.21262039	      6.55587550	     -9.72595494	     -1.13108693	      5.29738694	     22.79864456	      0.00000000	    -26.72489540	     -4.91119720	     -8.95602575
      0.61700000	      9.58086065	      5.60760801	      1.17086300	      0.59168501	      0.97094769	     -0.01631285	     14.27640057	     -9.52118067	     -5.94984089	     -2.00285240	     -2.17130193	      6.70140195	      0.00000000	    -28.96153503	      5.48397606	    -10.11549605	     -2.27271643	      5.58830754	     23.71579546	      0.00000000	    -26.78676963	     -4.23638603	     -9.00167928
      0.63300000	      9.81717246	      5.53694734	      1.81221321	      0.59282228	      0.96923459	     -0.01431591	     14.89137355	     -9.31876575	     -5.79959634	     -5.19069081	     -2.56784449	      5.14951455	      0.00000000	    -29.66159189	      4.55499146	     -9.70084838	     -3.68618849	      5.49032450	     24.03401842	      0.00000000	    -26.99803998	     -3.71280189	     -9.39501480
      0.65000000	      9.67301895	      5.52610680	      2.34439852	      0.59424334	      0.96730292	     -0.01184176	     16.04067386	     -9.14604938	     -5.78469297	     -8.93045970	     -3.42596243	      3.52554762	      0.00000000	    -29.68740130	      3.72575627	     -9.46257510	     -5.59714207	      5.43156438	     24.83437803	      0.00000000	    -26.74738619	     -3.33672625	     -9.79764701
      0.66700000	      9.55216331	      5.52915323	      2.79041746	      0.59601189	      0.96638769	     -0.00960307	     16.88858202	     -9.05367497	     -5.72493536	    -12.28644600	     -4.75045818	      2.38911912	      0.00000000	    -29.51137775	      3.06303225	     -9.00295936	     -7.86876924	      4.96248208	     25.08865493	      0.00000000	    -26.49713918	     -2.89915401	     -9.96586972
      0.68300000	      9.27319598	      5.69656017	      2.86493928	      0.59704554	      0.96549513	     -0.00661672	     18.34520637	     -9.08087758	     -5.30464450	    -16.39662611	     -5.40460038	      1.53521826	      0.00000000	    -28.69570377	      2.73899918	     -8.53242341	    -10.87353630	      4.24539482	     25.00173229	      0.00000000	    -26.12995819	     -2.80711159	     -9.78483717
      0.70000000	      9.19960591	      5.26479866	      3.33674726	      0.60003684	      0.96601903	     -0.00385229	     18.91922552	     -8.55661441	     -5.20012698	    -19.81951213	     -5.71276909	      0.69769810	      0.00000000	    -27.76593763	      1.53487356	     -8.01940987	    -14.45134556	      2.98643587	     25.07100315	      0.00000000	    -25.90561137	     -1.99960029	     -9.84662575
      0.71700000	      9.48952472	      4.59258408	      3.86994673	      0.60323063	      0.96753031	     -0.00102156	     18.29838654	     -7.80362856	     -5.39172436	    -21.99970345	     -5.57608451	      0.44304910	      0.00000000	    -26.74086555	     -0.03473957	     -7.50519858	    -18.67687897	      1.20882762	     25.00973201	      0.00000000	    -25.90882425	     -0.83195449	     -9.89662868
      0.73300000	      9.24865461	      4.30116815	      4.17269949	      0.60535506	      0.96823193	      0.00242544	     18.40780162	     -7.46979176	     -5.67176196	    -24.24079123	     -5.21282355	      0.67938990	      0.00000000	    -24.12430305	     -1.09846672	     -6.86824753	    -24.47088839	     -0.89933305	     24.14682605	      0.00000000	    -25.47144520	     -0.32129600	     -9.67268730
      0.75000000	      8.76653527	      3.65398651	      4.37620617	      0.60744609	      0.96874134	      0.00589740	     18.29869390	     -6.82157102	     -6.37953076	    -25.67973216	     -4.40213385	      1.38706977	      0.00000000	    -20.74521952	     -2.44856782	     -6.59734916	    -30.84960789	     -3.44128880	     22.82188250	      0.00000000	    -24.69453300	      0.51172190	     -9.76004740
      0.76700000	      8.00050028	      2.84919913	      4.57354357	      0.60856916	      0.96924887	      0.00924923	     18.31517998	     -5.89888248	     -6.85793802	    -26.69203463	     -3.26772650	      1.50567735	      0.00000000	    -16.29337172	     -4.01716676	     -6.53854832	    -38.02094824	     -6.73915002	     21.05068700	      0.00000000	    -23.77125619	      1.43717770	     -9.14269897
      0.78300000	      7.34128181	      1.68943571	      4.65097771	      0.60861644	      0.96984693	      0.01258626	     17.90042664	     -4.53335417	     -7.43118466	    -26.90314992	     -2.29455333	      1.88304865	      0.00000000	    -11.85180714	     -5.72122720	     -6.39948994	    -44.78546056	     -9.95983846	     18.11238890	      0.00000000	    -22.95348584	      2.69854832	     -8.41151062
      0.80000000	      6.92029171	      0.28061868	      4.47851521	      0.60892412	      0.97074469	      0.01620334	     17.16105078	     -2.64117327	     -7.57512142	    -26.89253071	     -1.33881955	      1.40851705	      0.00000000	     -7.53859199	     -7.76968925	     -6.64702719	    -51.24703516	    -13.09074311	     15.02212069	      0.00000000	    -22.35629190	      4.12158808	     -7.23896674
      0.81700000	      6.70569342	     -0.88623136	      4.40121407	      0.60857087	      0.97246180	      0.01962466	     15.80611938	     -1.02056471	     -7.75138841	    -26.14039056	     -0.45650190	      1.31383450	      0.00000000	     -3.75999899	     -9.32580472	     -6.46681786	    -56.57582008	    -14.69154197	     11.46870357	      0.00000000	    -21.98641330	      5.29870993	     -6.61587054
      0.83300000	      6.68310225	     -1.82795238	      4.16660344	      0.60847703	      0.97501614	      0.02272453	     14.13613605	      0.42923729	     -7.66442804	    -25.18639256	      0.24716661	      1.15026921	      0.00000000	     -0.43788065	    -10.55566445	     -6.45085256	    -60.99114447	    -15.02597871	      8.15836233	      0.00000000	    -21.88006016	      6.21376302	     -5.54025662
      0.85000000	      6.59906963	     -2.59227175	      3.77645483	      0.60791474	      0.97770040	      0.02601056	     12.35558792	      1.76016498	     -7.28115649	    -23.83506532	      0.77188008	      0.78993190	      0.00000000	      2.84871121	    -11.46257636	     -6.49986533	    -64.65184067	    -14.39129491	      5.05901278	      0.00000000	    -21.82440142	      6.81309776	     -4.52280139
      0.86700000	      6.96782915	     -3.01341594	      3.41557749	      0.60802605	      0.98126283	      0.02862299	     10.02506192	      2.58133310	     -7.02895438	    -22.56706890	      1.37167372	      1.16160794	      0.00000000	      5.23136658	    -11.91906248	     -6.57882760	    -67.23377919	    -12.99339076	      2.91557518	      0.00000000	    -22.10124015	      7.13281322	     -3.49709569
      0.88300000	      7.29565514	     -3.44831665	      3.14557437	      0.60756661	      0.98490081	      0.03104213	      7.39686621	      3.44790123	     -6.70512807	    -20.53192366	      1.68238413	      1.14604474	      0.00000000	      7.61567849	    -12.29648054	     -6.38527982	    -69.22362661	    -11.29935087	      2.20006523	      0.00000000	    -22.48307590	      7.45450568	     -2.69784104
      0.90000000	      7.95005523	     -3.82935354	      2.77158758	      0.60827713	      0.98859238	      0.03347905	      4.29837246	      4.26699209	     -6.16039568	    -18.43827119	      1.89601425	      1.14590652	      0.00000000	      9.32894771	    -12.65732224	     -6.22178317	    -70.51438574	     -9.56136596	      3.16634028	      0.00000000	    -23.08136925	      7.60238554	     -1.79691082
      0.91700000	      8.72924282	     -4.03882903	      2.50567051	      0.60828796	      0.99205544	      0.03508825	      1.09546527	      4.74186815	     -5.87308444	    -16.31960746	      2.06097927	      1.72805219	      0.00000000	     10.72640809	    -12.70007297	     -5.98924742	    -71.02697300	     -7.86735530	      4.70402348	      0.00000000	    -23.82987481	      7.72754606	     -1.29898021
      0.93300000	      9.29862840	     -4.07163616	      2.09134924	      0.60844935	      0.99525801	      0.03670367	     -1.88244474	      4.95318822	     -5.74802145	    -14.25762603	      2.12128880	      2.27080215	      0.00000000	     12.08230845	    -12.43564859	     -5.87896824	    -70.65369548	     -6.61348807	      6.18578831	      0.00000000	    -24.39869827	      7.57180831	     -0.13261717
      0.95000000	      9.86766584	     -3.89855563	      1.29361924	      0.60742052	      0.99776345	      0.03881754	     -4.49267330	      4.91338640	     -4.93609880	    -12.73784666	      2.34957170	      2.41069959	      0.00000000	     13.16635955	    -11.99960887	     -6.24686197	    -69.46916874	     -5.61853723	      7.41253796	      0.00000000	    -25.10602223	      7.00441476	      0.83793470
      0.96700000	     10.31817182	     -3.77706658	      0.85132416	      0.60651230	      0.99966225	      0.04018979	     -6.99958913	      4.82907390	     -4.67698707	    -11.16194813	      2.48391202	      3.01885862	      0.00000000	     14.30219559	    -11.57000493	     -6.40625232	    -67.62425116	     -4.82253508	      8.26852978	      0.00000000	    -25.61816955	      6.65587145	      1.23710538
      0.98300000	     10.88749154	     -3.63539855	      0.43310502	      0.60653036	      1.00139249	      0.04154061	     -9.75257133	      4.72867894	     -4.60590557	     -9.53742678	      2.46921372	      3.29986744	      0.00000000	     14.91848577	    -11.11517810	     -6.68219512	    -64.98539752	     -4.03541083	      8.69940549	      0.00000000	    -26.14824583	      6.26605662	      1.59520320
      1.00000000	     11.47770840	     -3.35083145	      0.27562302	      0.60519938	      1.00299654	      0.04254182	    -12.29586730	      4.53811760	     -4.27815544	     -8.08235935	      2.40609705	      3.09854912	      0.00000000	     15.33988687	    -10.40295130	     -6.81420235	    -61.56995818	     -3.46792240	      8.53953989	      0.00000000	    -26.86474867	      5.79399556	      1.93671898
      1.01700000	     11.80661990	     -3.17237698	      0.08306794	      0.60368222	      1.00371860	      0.04356727	    -14.41365376	      4.40557280	     -4.19406478	     -6.86667437	      2.48737761	      3.31303035	      0.00000000	     15.76616183	     -9.80440167	     -7.05591861	    -57.56832719	     -3.03037101	      7.79121356	      0.00000000	    -27.29247838	      5.41132260	      2.13158767
      1.03300000	     11.88677046	     -3.13531238	     -0.17453747	      0.60166990	      1.00361784	      0.04486561	    -16.23488748	      4.44121554	     -3.92242711	     -5.66717733	      2.50735753	      2.98015372	      0.00000000	     16.29579827	     -9.55216827	     -7.64319217	    -53.17013658	     -2.92666444	      6.86424145	      0.00000000	    -27.50119715	      5.15009212	      2.45830581
      1.05000000	     11.93123967	     -3.08395309	     -0.09274702	      0.59962958	      1.00311218	      0.04542984	    -17.93565797	      4.48011820	     -4.21022384	     -4.65380310	      2.62590609	      3.20768660	      0.00000000	     16.66759302	     -9.15819913	     -8.06008349	    -48.22218589	     -3.17063380	      5.56156965	      0.00000000	    -27.65508507	      5.00259848	      2.26017253
      1.06700000	     11.65267514	     -3.32350130	     -0.30318292	      0.59684004	      1.00174262	      0.04621777	    -19.03649423	      4.70981806	     -4.19479306	     -4.01280278	      2.82740463	      3.54493619	      0.00000000	     17.11397166	     -9.10884123	     -8.73112759	    -42.85187852	     -3.49645812	      4.22947622	      0.00000000	    -27.52245984	      5.05505447	      2.68676476
      1.08300000	     11.49518119	     -3.42949900	     -0.36303163	      0.59479880	      1.00026827	      0.04658043	    -20.59408250	      4.81430303	     -3.51527813	     -2.84774882	      2.68645989	      3.24320055	      0.00000000	     17.05834831	     -8.81723416	     -9.42750693	    -36.95728405	     -3.92942528	      3.11180443	      0.00000000	    -27.51687873	      4.99761242	      2.58583912
      1.10000000	     10.64502005	     -3.83656668	     -0.64942030	      0.59187033	      0.99725150	      0.04714568	    -20.92342839	      5.12006188	     -3.54241411	     -2.57066481	      3.15353817	      3.95435802	      0.00000000	     17.88134784	     -8.96414836	    -10.28527474	    -31.38031104	     -4.41927995	      2.90586548	      0.00000000	    -26.84793425	      5.19342514	      3.03128480
      1.11700000	     10.00988760	     -4.02697036	     -0.77822479	      0.58937861	      0.99449033	      0.04708374	    -21.52563548	      5.24604923	     -3.36715146	     -2.30296468	      3.52399058	      4.16702883	      0.00000000	     18.00794401	     -8.60990518	    -10.64577553	    -25.19828926	     -4.76878533	      3.16016581	      0.00000000	    -26.41048506	      5.26776189	      2.92002281
      1.13300000	      9.41122433	     -4.35004681	     -1.06316282	      0.58677353	      0.99140367	      0.04671739	    -22.05241013	      5.40705689	     -2.88019736	     -2.26339213	      3.90859145	      4.02807208	      0.00000000	     18.04676301	     -8.44636424	    -10.94085111	    -19.30331416	     -4.88516414	      4.43954096	      0.00000000	    -26.01266524	      5.39295598	      3.20782419
      1.15000000	      9.29044347	     -4.34661337	     -0.97139367	      0.58529473	      0.98881982	      0.04560846	    -23.26508221	      5.27759114	     -3.04657893	     -1.90011611	      4.29545476	      4.86444660	      0.00000000	     17.12885188	     -7.68556893	    -10.33282294	    -13.01958428	     -5.16559344	      5.65795831	      0.00000000	    -25.94904333	      5.33448697	      3.09231821
      1.16700000	      8.99288298	     -4.44454292	     -1.22205056	      0.58421843	      0.98566333	      0.04482059	    -24.32438524	      5.17149767	     -3.00777578	     -1.55574380	      4.61513777	      5.29454415	      0.00000000	     16.52613661	     -7.26857767	     -9.90005307	     -7.80307964	     -5.28750476	      7.23933566	      0.00000000	    -25.79554060	      5.21088449	      2.80361114
      1.18300000	      9.29842606	     -4.53204975	     -1.47416563	      0.58364899	      0.98322104	      0.04391089	    -25.89144063	      4.93211943	     -3.21161687	     -1.54072244	      5.06555440	      6.33657097	      0.00000000	     15.40951176	     -6.95044125	     -9.45797295	     -3.80598649	     -5.18650625	      8.82198864	      0.00000000	    -26.13929114	      5.07085402	      3.12010313
      1.20000000	      9.18554754	     -4.45229871	     -1.69443960	      0.58375785	      0.98014673	      0.04290475	    -27.00674218	      4.56524994	     -3.69645798	     -1.55022665	      5.51380951	      7.53477536	      0.00000000	     15.07673791	     -6.53684978	     -8.90141219	     -1.43301286	     -5.04767102	      9.80432465	      0.00000000	    -26.03578660	      4.74507349	      2.62666808
      1.21700000	      9.55626692	     -4.45426932	     -1.86446693	      0.58382735	      0.97803088	      0.04185568	    -28.27435017	      4.20432110	     -4.22589600	     -2.22830937	      5.89798570	      8.76796085	      0.00000000	     14.91434579	     -6.33309723	     -8.50439236	     -1.40221987	     -4.47375931	     10.65413489	      0.00000000	    -26.43069764	      4.45223294	      2.66564944
      1.23300000	      9.72928981	     -4.52287797	     -2.16685411	      0.58413512	      0.97572028	      0.04120050	    -29.17321499	      3.86044433	     -4.28553879	     -3.12613602	      6.21475984	      9.60801329	      0.00000000	     15.34734072	     -6.31548730	     -8.18050352	     -3.08000508	     -3.92311192	     10.96933567	      0.00000000	    -26.56787036	      4.12465174	      2.44870696
      1.25000000	      9.81148195	     -4.49386236	     -2.72672699	      0.58565877	      0.97369440	      0.03998023	    -29.77840436	      3.19323726	     -4.38039819	     -4.55384629	      6.28977806	     10.68092711	      0.00000000	     15.90383742	     -6.23544988	     -8.09207651	     -5.75920440	     -3.68821937	     10.71841711	      0.00000000	    -26.49729819	      3.69086918	      2.75668713
      1.26700000	      9.73952614	     -4.59579192	     -2.78591283	      0.58759856	      0.97155950	      0.03866370	    -30.01663015	      2.92299897	     -4.46254405	     -6.28171123	      6.19677318	     11.30399842	      0.00000000	     16.90600281	     -6.23486793	     -7.50565355	     -9.21385025	     -3.96115599	     10.09415451	      0.00000000	    -26.19967280	      3.51304371	      2.65413541
      1.28300000	      9.80033189	     -4.86615633	     -3.02814245	      0.58914791	      0.97034672	      0.03785602	    -29.98831792	      2.72171874	     -4.27335741	     -8.65241700	      5.70630249	     11.61815712	      0.00000000	     17.38190432	     -6.47752645	     -7.37512621	    -12.15891031	     -4.91321705	      9.36838301	      0.00000000	    -26.15465059	      3.36863990	      2.64898582
      1.30000000	      9.41038840	     -4.94656134	     -3.34311900	      0.59106770	      0.96897262	      0.03657339	    -29.26679692	      2.24493838	     -4.32314143	    -11.35252690	      5.06101308	     12.32320157	      0.00000000	     18.42674318	     -6.59975309	     -7.33423883	    -15.38200652	     -5.83478917	      8.70048882	      0.00000000	    -25.56950307	      3.01790873	      2.54505282
      1.31700000	      9.41385496	     -4.82915935	     -3.48968004	      0.59410774	      0.96897292	      0.03467754	    -28.51500903	      1.59088915	     -4.45599792	    -14.79475366	      3.83616258	     12.71648380	      0.00000000	     18.67451042	     -6.44825774	     -7.34421103	    -18.08279826	     -6.48137348	      8.19819238	      0.00000000	    -25.28551375	      2.60097789	      2.10752406
      1.33300000	      9.66609631	     -4.47678650	     -3.64502994	      0.59751032	      0.97000449	      0.03236830	    -27.53744080	      0.59705436	     -4.72984465	    -18.96856014	      2.24167083	     13.11506690	      0.00000000	     18.27311198	     -5.99958357	     -7.41429926	    -20.25252399	     -6.70224569	      7.70734652	      0.00000000	    -25.19186616	      1.93263050	      1.84763210
      1.35000000	      9.92349272	     -3.89524169	     -3.49856287	      0.60074216	      0.97127141	      0.02914048	    -25.89998152	     -0.62678387	     -5.63267655	    -24.14307774	      0.14984114	     13.41187487	      0.00000000	     17.68578283	     -5.13788784	     -6.96724807	    -22.04535224	     -6.57045535	      7.07407973	      0.00000000	    -25.03545210	      1.24148124	      1.12316160
      1.36700000	      9.90883946	     -3.01682087	     -3.41616382	      0.60364012	      0.97263169	      0.02521456	    -23.22558064	     -2.36875474	     -6.62621965	    -30.30263342	     -2.78159388	     13.52893233	      0.00000000	     17.02545326	     -3.96961638	     -6.92868559	    -23.21421205	     -6.20044582	      6.73245201	      0.00000000	    -24.74980236	      0.29944826	      0.41651492
      1.38300000	      9.92007848	     -2.05583237	     -3.34796430	      0.60620943	      0.97422435	      0.02128787	    -20.09554058	     -4.29612526	     -7.60399186	    -36.84217305	     -6.43760490	     12.56485125	      0.00000000	     16.01357746	     -2.73155173	     -7.13821581	    -23.86418483	     -5.43004019	      6.72345253	      0.00000000	    -24.45974814	     -0.70135932	     -0.17533089
      1.40000000	      9.53152649	     -0.78676200	     -3.31765054	      0.60772585	      0.97530727	      0.01713850	    -16.09860036	     -6.55996442	     -8.21282366	    -43.57381976	    -10.30791363	     10.89722873	      0.00000000	     15.29755695	     -1.08547713	     -7.23137253	    -24.11055024	     -4.68387552	      6.38646139	      0.00000000	    -23.75247655	     -1.96049831	     -1.06584438
      1.41700000	      8.95872378	      0.43647102	     -3.34294851	      0.60833301	      0.97648662	      0.01323446	    -11.69087445	     -8.70444334	     -8.34194824	    -49.94310430	    -13.87774654	      8.73278907	      0.00000000	     14.46940311	      0.55570286	     -7.30205942	    -23.69373949	     -3.93945515	      5.95033251	      0.00000000	    -22.98706038	     -3.16723978	     -1.81103194
      1.43300000	      8.86417575	      1.70783574	     -3.32497895	      0.60828700	      0.97838977	      0.00953550	     -7.88661819	    -10.74801688	     -8.08840829	    -55.61310902	    -15.90976978	      6.77764093	      0.00000000	     12.93031465	      2.30924908	     -7.24691336	    -22.81741397	     -3.23912395	      5.60509633	      0.00000000	    -22.76791488	     -4.41461926	     -2.54553823
      1.45000000	      8.96267830	      2.53080309	     -3.34408268	      0.60786657	      0.98103684	      0.00654868	     -4.44645561	    -12.01489663	     -7.47863316	    -60.44396205	    -15.92613104	      4.50787971	      0.00000000	     11.12625004	      3.54704694	     -7.21472562	    -21.87008994	     -2.52003220	      5.43696434	      0.00000000	    -22.71528353	     -5.20261399	     -3.16367743
      1.46700000	      8.78671411	      2.81808621	     -2.71988703	      0.60781433	      0.98419211	      0.00325066	     -1.26882247	    -12.40274786	     -7.41601222	    -64.17434977	    -14.44776666	      2.76505490	      0.00000000	      9.50042733	      4.20221203	     -6.70076577	    -20.80628244	     -1.87088404	      5.85121507	      0.00000000	    -22.48570746	     -5.22245209	     -4.18904578
      1.48300000	      9.28190579	      3.12991689	     -2.28773808	      0.60733308	      0.98813551	      0.00070282	      1.13270308	    -12.74813774	     -7.15362664	    -67.18842777	    -12.35786234	      1.70151661	      0.00000000	      6.87033726	      4.85737277	     -6.30065705	    -19.18801786	     -1.39530262	      6.18917195	      0.00000000	    -22.96248132	     -5.34588813	     -5.14196613
      1.50000000	      9.25817765	      3.33073450	     -1.76822492	      0.60636422	      0.99094107	     -0.00188161	      3.99942611	    -12.85760310	     -6.87164962	    -69.47175217	    -10.24433202	      1.31395748	      0.00000000	      5.03049167	      5.35175512	     -5.72952520	    -17.95255912	     -0.92197155	      6.33394825	      0.00000000	    -22.95230350	     -5.30003849	     -6.09154456
      1.51700000	      9.61810750	      3.64065170	     -1.04463697	      0.60599710	      0.99403711	     -0.00447708	      6.08120066	    -13.18159639	     -7.00598068	    -70.82505223	     -8.21659220	      1.59066093	      0.00000000	      2.40160408	      5.95543942	     -4.89286251	    -16.08391565	     -0.63437116	      6.45963568	      0.00000000	    -23.28996501	     -5.27823551	     -7.10825670
      1.53300000	      9.85876556	      3.81419864	     -0.21200449	      0.60551433	      0.99679591	     -0.00702579	      8.10259414	    -13.23827416	     -7.21950315	    -71.33538596	     -6.81059631	      1.78414513	      0.00000000	     -0.17670729	      6.35289420	     -3.80147604	    -14.05026958	     -0.55710317	      6.42330534	      0.00000000	    -23.54396557	     -5.04757819	     -8.48042830
      1.55000000	     10.16406026	      4.07138173	      0.29527593	      0.60456023	      0.99885478	     -0.00916967	     10.06173456	    -13.46058325	     -7.18780546	    -71.25107583	     -5.46890817	      2.76575792	      0.00000000	     -2.65462001	      6.72796514	     -3.42276915	    -12.29221265	     -0.38164698	      6.82020328	      0.00000000	    -23.84332127	     -5.03726544	     -9.27621920
      1.56700000	     10.41077609	      3.99618255	      1.16453606	      0.60347936	      1.00066813	     -0.01135513	     11.63041955	    -13.28987507	     -7.71137292	    -70.18283109	     -4.50506268	      3.37869098	      0.00000000	     -5.02332185	      6.64748041	     -2.59515395	    -10.64917926	     -0.10558989	      7.22811548	      0.00000000	    -24.14805611	     -4.55662715	    -10.23136386
      1.58300000	     10.89349131	      3.92499222	      1.60472012	      0.60262740	      1.00233541	     -0.01277806	     12.78883399	    -13.10252100	     -7.94869888	    -68.35799485	     -3.63874052	      4.30383777	      0.00000000	     -7.55211188	      6.48690030	     -2.58378920	     -9.21275230	      0.29550650	      8.17158367	      0.00000000	    -24.62824720	     -4.23923682	    -10.80304436
      1.60000000	     11.03336760	      3.87301914	      1.85910559	      0.60178163	      1.00306545	     -0.01396041	     14.23737599	    -12.83827917	     -7.96168128	    -65.93472464	     -3.16155183	      4.94682317	      0.00000000	     -9.76656269	      6.38875575	     -2.62309030	     -7.62768728	      0.54538357	      8.85699398	      0.00000000	    -24.76449354	     -3.97921988	    -11.02629818
      1.61700000	     11.04463426	      4.01320910	      2.25682551	      0.59915574	      1.00295140	     -0.01578527	     15.63350970	    -12.96255520	     -8.31411298	    -62.94450934	     -2.71999748	      5.41455395	      0.00000000	    -11.59274894	      6.52146039	     -1.96274319	     -6.30723481	      0.69021486	      8.88581815	      0.00000000	    -24.95235147	     -3.84187830	    -11.41407725
      1.63300000	     11.08225414	      3.85382367	      2.32124191	      0.59764586	      1.00235536	     -0.01657436	     16.67906617	    -12.59087523	     -8.55182153	    -59.18727757	     -2.32318271	      5.43451370	      0.00000000	    -13.36558323	      6.29892510	     -2.38305014	     -5.26977564	      1.25379955	      9.80234622	      0.00000000	    -24.96897742	     -3.52102821	    -11.46772147
      1.65000000	     11.12801750	      3.78541270	      2.23858077	      0.59561973	      1.00139251	     -0.01705842	     17.40118888	    -12.18040947	     -8.71659462	    -54.65713976	     -1.93039884	      4.78273811	      0.00000000	    -15.11828235	      6.14933437	     -2.92642965	     -4.17461609	      1.63356966	     10.93506416	      0.00000000	    -25.06160542	     -3.34756907	    -11.37066639
      1.66700000	     11.38019097	      3.36171259	      2.26217591	      0.59440979	      1.00059259	     -0.01686122	     17.25667149	    -11.32768509	     -9.38292252	    -49.18167211	     -1.86402111	      3.72325983	      0.00000000	    -17.15935679	      5.43966272	     -3.80901108	     -2.99354202	      2.06591304	     12.91904986	      0.00000000	    -25.33930412	     -2.83009915	    -11.11320279
      1.68300000	     11.21763337	      3.15028238	      1.99380083	      0.59259275	      0.99819715	     -0.01616461	     17.60825764	    -10.55958995	     -9.59046165	    -43.46264432	     -2.04958892	      2.57718107	      0.00000000	    -18.41144458	      4.99299541	     -5.02732978	     -2.43383497	      2.84582769	     15.20609628	      0.00000000	    -25.21983107	     -2.66151181	    -10.82830280
      1.70000000	     10.71727205	      2.98851282	      1.72664637	      0.59125507	      0.99516419	     -0.01524576	     17.85337930	     -9.76571372	     -9.84982506	    -37.05849091	     -2.18517016	      1.61438505	      0.00000000	    -19.38621546	      4.63848406	     -6.16630339	     -1.79936058	      3.56050812	     17.36507316	      0.00000000	    -24.65943442	     -2.56428497	    -10.54633868
      1.71700000	     10.58101005	      3.30496436	      1.47055184	      0.58939269	      0.99242748	     -0.01529224	     17.53393263	     -9.62057857	    -10.05777425	    -30.46830313	     -2.26330121	      1.90102769	      0.00000000	    -20.76231768	      5.03010558	     -6.30110339	     -1.15985970	      4.04466539	     17.62121152	      0.00000000	    -24.61674011	     -2.81454202	    -10.38567041
      1.73300000	      9.98199822	      3.90038438	      1.12869067	      0.58767728	      0.98853150	     -0.01552572	     17.61943617	     -9.71630605	     -9.84629744	    -23.88547151	     -2.12255110	      2.89690612	      0.00000000	    -21.72051652	      5.94578148	     -5.96429563	     -0.47137057	      4.67823351	     16.70817152	      0.00000000	    -24.05281117	     -3.35999882	    -10.18271542
      1.75000000	      9.55283022	      4.61621980	      0.83644935	      0.58638878	      0.98483888	     -0.01561970	     17.27421086	     -9.96247062	     -9.40288416	    -17.24719017	     -2.00442781	      4.70182703	      0.00000000	    -22.82313376	      6.95200855	     -5.41613598	      0.10382029	      5.17956584	     15.58190565	      0.00000000	    -23.59085567	     -3.99777369	    -10.36313928
      1.76700000	      8.96287882	      5.25306552	      0.66090134	      0.58540759	      0.98066848	     -0.01522141	     17.03061398	    -10.10324423	     -8.59162426	    -11.06299002	     -2.03771526	      6.39042734	      0.00000000	    -23.47277438	      7.65256443	     -5.56280975	      0.12819648	      5.96437495	     15.98904411	      0.00000000	    -22.95659517	     -4.56307734	    -10.48330547
      1.78300000	      8.72106506	      5.51646845	      0.63812711	      0.58548891	      0.97688212	     -0.01445157	     16.17676008	     -9.86926305	     -7.38610433	     -5.47377718	     -2.03884854	      7.00154161	      0.00000000	    -24.70597112	      7.81414596	     -5.64439965	      0.44451901	      6.53427202	     16.55906393	      0.00000000	    -22.60900390	     -4.67534757	    -10.67901925
      1.80000000	      8.54839113	      5.70636159	      0.68262917	      0.58561374	      0.97332593	     -0.01308150	     15.52830706	     -9.66371767	     -6.01579587	     -1.40822330	     -2.10536957	      7.20113772	      0.00000000	    -25.59878942	      7.68903721	     -6.38678706	      0.02523424	      7.27920888	     18.44638586	      0.00000000	    -22.32459916	     -4.76611113	    -10.84993951
      1.81700000	      8.69338044	      5.79626396	      0.84445965	      0.58629948	      0.97044684	     -0.01197135	     15.11599877	     -9.51985059	     -5.10077834	      0.34581637	     -1.98952458	      7.28591550	      0.00000000	    -26.55625756	      7.32480271	     -7.48499122	     -0.96612924	      8.02376968	     20.90588861	      0.00000000	    -22.37793277	     -4.64264461	    -11.08243286
      1.83300000	      8.95686070	      5.60037972	      1.24895084	      0.58729671	      0.96819435	     -0.01109036	     15.00767734	     -9.16451763	     -5.17857466	      0.03071209	     -1.88490812	      7.69151214	      0.00000000	    -27.73577454	      6.60251417	     -7.53810321	     -1.75139890	      8.41089193	     21.94832890	      0.00000000	    -22.51794855	     -4.09938321	    -11.43435151
      1.85000000	      9.01468876	      5.22612534	      1.51195614	      0.58936259	      0.96615102	     -0.00921342	     15.74293900	     -8.51869237	     -4.77628553	     -2.46221695	     -1.79818915	      6.98715710	      0.00000000	    -28.35338409	      5.62426123	     -8.44929425	     -3.21440638	      8.73577997	     23.84997060	      0.00000000	    -22.34492942	     -3.51950819	    -11.44531792
      1.86700000	      9.22793077	      4.98892271	      1.78234045	      0.59112055	      0.96466921	     -0.00720057	     16.50180806	     -7.96962655	     -4.34543959	     -5.89836257	     -2.12411887	      5.70854133	      0.00000000	    -28.89210660	      4.72809429	     -8.95680834	     -5.02435436	      8.66331664	     25.16597689	      0.00000000	    -22.41521143	     -2.99681847	    -11.62351839
      1.88300000	      9.07190060	      4.75185022	      2.28642595	      0.59431664	      0.96329921	     -0.00586972	     17.35095800	     -7.52418923	     -4.34180281	     -9.30292712	     -2.97188831	      4.34444429	      0.00000000	    -29.14199799	      3.81016859	     -8.80028263	     -6.65932181	      7.98808622	     25.66133731	      0.00000000	    -21.91512243	     -2.39520749	    -11.99379671
      1.90000000	      8.78890304	      4.48323278	      2.66677413	      0.59750398	      0.96218795	     -0.00357422	     18.20570998	     -7.00346759	     -4.08677337	    -12.48551687	     -4.24952846	      2.99397365	      0.00000000	    -28.85151518	      2.82808430	     -8.71536206	     -8.92814646	      7.09235625	     26.13106042	      0.00000000	    -21.30404587	     -1.89236153	    -11.92749487
      1.91700000	      8.40452454	      4.34348782	      2.99206505	      0.60040927	      0.96152596	     -0.00126381	     19.42919405	     -6.70482282	     -3.96527004	    -16.24714488	     -5.07275749	      1.92025764	      0.00000000	    -27.97536765	      1.99634983	     -8.34747351	    -11.91195584	      5.87626175	     26.22965750	      0.00000000	    -20.64301721	     -1.45066641	    -12.01311113
      1.93300000	      8.12327033	      3.90841386	      3.34355237	      0.60435716	      0.96175866	      0.00123021	     20.09467426	     -6.06203744	     -3.43801603	    -19.45303427	     -5.58519989	      0.51444672	      0.00000000	    -26.72485776	      0.79829972	     -8.12506376	    -15.68700280	      4.18354229	     26.31192045	      0.00000000	    -19.94437546	     -0.77822130	    -11.81571964
      1.95000000	      8.23567310	      3.31994322	      3.95477083	      0.60840107	      0.96305607	      0.00368912	     19.89820668	     -5.32653017	     -3.27476410	    -22.00165825	     -5.69686034	     -0.18718862	      0.00000000	    -25.25133308	     -0.75258523	     -7.47078025	    -20.39363668	      2.11885743	     26.22930778	      0.00000000	    -19.73223383	      0.15015250	    -11.94211143
      1.96700000	      7.86384292	      3.06062166	      4.51370702	      0.61104337	      0.96357206	      0.00597573	     20.10729490	     -5.08005965	     -3.49749998	    -24.27708542	     -5.38956497	     -0.00298413	      0.00000000	    -22.24607513	     -1.88463650	     -6.52319578	    -26.54842660	     -0.38098944	     25.59943669	      0.00000000	    -19.07975981	      0.67381504	    -12.00868851
      1.98300000	      7.35857768	      2.42340086	      4.88579626	      0.61320226	      0.96384850	      0.00892563	     20.17881935	     -4.35612793	     -3.83887772	    -25.91303569	     -4.77197460	      0.01062463	      0.00000000	    -18.41165649	     -3.33508259	     -6.02641211	    -33.52291965	     -3.55188178	     24.51391596	      0.00000000	    -18.35079824	      1.43409587	    -11.92726527
      2.00000000	      6.75206383	      1.83481687	      4.88478722	      0.61461328	      0.96403426	      0.01170494	     20.33516089	     -3.61773501	     -4.22358303	    -27.43566038	     -3.61714807	      0.14799355	      0.00000000	    -14.13730659	     -4.33133067	     -5.48270385	    -40.50185460	     -7.49241705	     21.98637551	      0.00000000	    -17.49915727	      2.09141765	    -11.44845506
      2.01700000	      6.33356963	      0.62982663	      4.68416748	      0.61526961	      0.96472102	      0.01498505	     19.80192325	     -2.07960290	     -4.57456218	    -27.86623091	     -2.56678736	      0.02919317	      0.00000000	     -9.80111615	     -5.94999989	     -5.28597538	    -47.28892355	    -11.54138035	     19.16380662	      0.00000000	    -16.94952825	      3.35558266	    -10.33048417
      2.03300000	      5.86138860	     -0.57505260	      4.70096704	      0.61567829	      0.96586456	      0.01793970	     19.01576731	     -0.58374541	     -5.07280570	    -27.75110226	     -1.50028892	      0.14856333	      0.00000000	     -5.37244818	     -7.57549467	     -4.92403705	    -53.42787956	    -14.95444474	     16.10597198	      0.00000000	    -16.26835875	      4.58995057	     -9.64059651
      2.05000000	      5.52265657	     -1.63282122	      4.37978258	      0.61537949	      0.96754773	      0.02142990	     17.89234814	      0.93446507	     -5.18681590	    -27.16845847	     -0.57291186	     -0.00255584	      0.00000000	     -1.28245094	     -8.92074393	     -4.69787334	    -58.79974087	    -16.63258569	     13.37296071	      0.00000000	    -15.87395682	      5.54819575	     -8.53110513
      2.06700000	      5.77070345	     -2.55531105	      4.03833589	      0.61557837	      0.97041387	      0.02447597	     15.98677040	      2.37800347	     -5.00958441	    -26.38763854	      0.31590356	     -0.16291184	      0.00000000	      2.06238846	    -10.15356175	     -4.46090651	    -63.56460851	    -16.51873484	     11.43468992	      0.00000000	    -16.06673423	      6.36447633	     -7.55728790
      2.08300000	      5.98183969	     -3.35668906	      3.54869306	      0.61581629	      0.97398540	      0.02764871	     13.72701776	      3.66398852	     -4.65739009	    -24.89002419	      0.94747366	     -0.05812711	      0.00000000	      5.02496656	    -11.25459662	     -4.49983498	    -67.26138913	    -14.64802643	     10.19694934	      0.00000000	    -16.25321692	      7.00378738	     -6.19362694
      2.10000000	      6.28950309	     -3.90423158	      2.98255861	      0.61591953	      0.97793479	      0.03039749	     11.28072411	      4.58471597	     -4.34775748	    -23.28910694	      1.46533061	      0.50386264	      0.00000000	      7.63574478	    -11.84021264	     -4.46822255	    -70.00254272	    -12.14803992	      9.10986512	      0.00000000	    -16.60788885	      7.33731373	     -5.02016948
      2.11700000	      7.13138610	     -4.57415706	      2.42039593	      0.61617841	      0.98256823	      0.03352102	      7.74624927	      5.73212229	     -3.73198273	    -20.67604941	      1.51242311	      0.67451364	      0.00000000	      9.47221505	    -12.81703725	     -4.71755003	    -71.78401224	    -10.02578263	      8.79232256	      0.00000000	    -17.43727824	      7.76451221	     -3.66108686
      2.13300000	      7.72888767	     -4.94217554	      1.94098320	      0.61646807	      0.98674664	      0.03581538	      4.52776142	      6.38478909	     -3.23447674	    -18.26112524	      1.59404039	      0.99249934	      0.00000000	     11.32527865	    -13.09028864	     -4.65221170	    -72.59251098	     -8.23940894	      8.58734661	      0.00000000	    -18.06008033	      7.86812934	     -2.57095437
      2.15000000	      8.36174610	     -5.17704434	      1.33275420	      0.61670272	      0.99057429	      0.03775889	      1.28489937	      6.81616523	     -2.55883122	    -15.86765124	      1.64000411	      1.29419179	      0.00000000	     12.87782458	    -13.19665705	     -4.85107254	    -72.55672556	     -6.95805624	      8.51536551	      0.00000000	    -18.66042822	      7.83323981	     -1.55631950
      2.16700000	      9.14044687	     -5.37214884	      0.78591334	      0.61656716	      0.99402998	      0.04028989	     -2.11473057	      7.18202650	     -1.85457411	    -13.41704696	      1.47584946	      1.63092182	      0.00000000	     14.09009164	    -13.44445079	     -5.19036224	    -71.79098888	     -5.88324165	      9.01368605	      0.00000000	    -19.46237825	      7.68708382	     -0.53007260
      2.18300000	      9.69846423	     -5.13606835	      0.31149949	      0.61632741	      0.99679882	      0.04144922	     -4.92920848	      6.87999296	     -1.71977275	    -11.67867028	      1.70706497	      2.56340799	      0.00000000	     15.27433936	    -12.86261353	     -5.42725054	    -70.20257790	     -5.02851491	      8.96419594	      0.00000000	    -19.98813868	      7.20470359	      0.07225064
      2.20000000	      9.96888100	     -5.16761604	     -0.22438792	      0.61527945	      0.99831459	      0.04314963	     -7.26332108	      6.92204150	     -1.26522748	    -10.10702250	      1.87045606	      2.83295192	      0.00000000	     16.71024450	    -12.69987022	     -5.69804573	    -68.15850125	     -4.28733452	      9.11099260	      0.00000000	    -20.28354547	      6.93154193	      0.72097425
      2.21700000	     10.54945103	     -4.98222727	     -0.53328713	      0.61497689	      0.99989602	      0.04433898	    -10.15135019	      6.71221147	     -0.93383038	     -8.21391805	      1.94041040	      3.00445186	      0.00000000	     17.35503173	    -12.26713989	     -6.00422786	    -65.17018770	     -3.59877524	      9.15383948	      0.00000000	    -20.79759501	      6.46458720	      1.09653186
      2.23300000	     11.04396499	     -4.81306550	     -0.64207705	      0.61380722	      1.00078487	      0.04549175	    -12.80813815	      6.54908265	     -0.81032228	     -6.45752012	      1.98252997	      3.21017946	      0.00000000	     17.89716027	    -11.85451570	     -6.28540315	    -61.47975136	     -3.11814891	      8.88065930	      0.00000000	    -21.32571947	      6.04139851	      1.27480279
      2.25000000	     11.16045384	     -4.68170487	     -0.76636976	      0.61254021	      1.00057352	      0.04640510	    -14.83763279	      6.39191762	     -0.75455745	     -5.10818923	      2.21483091	      3.59307629	      0.00000000	     18.48689331	    -11.44988442	     -6.62848655	    -57.07845378	     -2.72114269	      8.33349720	      0.00000000	    -21.42110326	      5.70220211	      1.46564877
      2.26700000	     11.19105579	     -4.56474165	     -1.01738759	      0.61070237	      0.99974027	      0.04710517	    -16.57482295	      6.20531522	     -0.49181052	     -4.09620952	      2.61910204	      3.76591575	      0.00000000	     18.90029726	    -11.14299370	     -7.35168775	    -52.12038222	     -2.73369294	      7.48895542	      0.00000000	    -21.50716220	      5.36175737	      1.67543692
      2.28300000	     10.81736616	     -4.69500959	     -1.26523667	      0.60830479	      0.99792068	      0.04826203	    -17.65104745	      6.33230169	     -0.01746482	     -3.47396151	      3.07008267	      3.52676182	      0.00000000	     19.47548045	    -11.13012679	     -8.15916945	    -46.61900981	     -2.88403023	      6.57161670	      0.00000000	    -21.22321902	      5.25076587	      1.61781343
      2.30000000	     10.57007792	     -4.71842172	     -1.18892013	      0.60655897	      0.99590232	      0.04866199	    -18.93927479	      6.40372660	     -0.06128097	     -2.74909050	      3.42098786	      3.44942196	      0.00000000	     19.62816203	    -10.80266727	     -8.75379793	    -40.62393090	     -3.18063672	      5.81468535	      0.00000000	    -21.05555009	      5.11644867	      1.54043790
      2.31700000	      9.72938749	     -4.96497612	     -1.81479599	      0.60429585	      0.99275234	      0.04965828	    -19.61494953	      6.46581044	      1.19993025	     -1.93773788	      3.71282487	      3.00734973	      0.00000000	     20.03214938	    -10.88337608	    -10.02017177	    -34.33661641	     -3.45193337	      5.47589808	      0.00000000	    -20.27976695	      5.04874321	      2.34209071
      2.33300000	      9.06878941	     -5.21583716	     -1.68579654	      0.60243424	      0.98930838	      0.04974273	    -20.30603467	      6.75902371	      1.26360610	     -1.57083840	      4.22619156	      3.05505101	      0.00000000	     20.25814426	    -10.68935930	    -10.57430990	    -27.98384757	     -3.59423066	      6.08551864	      0.00000000	    -19.65053798	      5.21471266	      2.17068551
      2.35000000	      8.51691108	     -5.18672628	     -1.79402619	      0.60045475	      0.98601827	      0.04921926	    -21.07200376	      6.59323726	      0.76407218	     -1.20780965	      4.95882869	      4.19380345	      0.00000000	     19.84722525	    -10.05801829	    -11.11105456	    -21.10559112	     -3.82104796	      7.06932641	      0.00000000	    -19.22880901	      5.06929832	      2.10378768
      2.36700000	      8.15351879	     -5.30931280	     -1.85818906	      0.59911170	      0.98280423	      0.04834787	    -22.23891001	      6.56155890	      0.99362000	     -0.54700366	      5.25697201	      4.41921909	      0.00000000	     19.13716860	     -9.54485546	    -11.27339273	    -14.54909449	     -3.98997082	      8.51798698	      0.00000000	    -18.98977886	      5.03015256	      1.74455945
      2.38300000	      7.92926042	     -5.17805791	     -1.98376946	      0.59821650	      0.97954210	      0.04706860	    -23.36272810	      6.20553726	      0.62237386	     -0.31493630	      5.94748254	      5.25408474	      0.00000000	     18.02740061	     -8.68573604	    -10.66559989	     -8.25223634	     -4.49992274	      9.11915437	      0.00000000	    -18.77514718	      4.80694155	      1.37779055
      2.40000000	      7.92114627	     -5.17945079	     -2.12834864	      0.59802028	      0.97649689	      0.04606960	    -24.97052208	      5.95425449	      0.76027163	      0.38290700	      6.05763210	      5.61512073	      0.00000000	     16.89132394	     -8.17824296	     -9.80987152	     -3.37605307	     -4.84381646	      9.71914158	      0.00000000	    -18.77533122	      4.58774159	      1.59170392
      2.41700000	      8.27457548	     -4.96617199	     -2.28296799	      0.59862902	      0.97397482	      0.04491185	    -26.58016536	      5.47860911	     -0.12286514	      0.22261411	      6.65863847	      6.80354141	      0.00000000	     15.68771239	     -7.65260439	     -9.11071799	     -0.31680679	     -4.88257416	     10.61465150	      0.00000000	    -19.11304817	      4.16645642	      1.65221287
      2.43300000	      8.46750318	     -4.96102325	     -2.28932804	      0.59842432	      0.97109143	      0.04401900	    -27.98949614	      5.27593610	     -0.50402344	      0.17877019	      7.04774781	      7.71562815	      0.00000000	     15.65590823	     -7.53355686	     -8.08023042	     -0.07232706	     -4.41247503	     11.41749843	      0.00000000	    -19.29676262	      3.88612156	      1.36815787
      2.45000000	      8.54122538	     -4.93777837	     -2.50176954	      0.59884665	      0.96875950	      0.04303999	    -28.81535249	      4.93931430	     -0.86150805	     -0.76795955	      7.51770790	      8.61643337	      0.00000000	     16.23281524	     -7.47033232	     -7.37184805	     -1.86205041	     -3.98125314	     11.87214698	      0.00000000	    -19.37846968	      3.58056812	      1.47570014
      2.46700000	      8.65393352	     -4.59554234	     -2.81301509	      0.59948054	      0.96686264	      0.04153453	    -29.38880097	      4.18500273	     -1.28537905	     -2.23381357	      8.02986372	      9.54347693	      0.00000000	     17.03181778	     -6.95681604	     -7.16936964	     -4.86930359	     -4.25708611	     11.35640019	      0.00000000	    -19.39814723	      2.92811575	      1.73073561
      2.48300000	      8.27799176	     -4.52673047	     -2.84635730	      0.60098957	      0.96488574	      0.03951596	    -29.41693008	      3.83031402	     -1.41176721	     -3.69677962	      7.95234735	      9.92542497	      0.00000000	     18.49455679	     -6.62629786	     -6.83380605	     -8.50318756	     -5.06816623	     10.33987565	      0.00000000	    -18.98212898	      2.70549642	      1.44506460
      2.50000000	      8.10648929	     -4.36243468	     -3.20241529	      0.60271510	      0.96375606	      0.03774991	    -29.34247787	      3.14788143	     -1.59252531	     -5.71776990	      7.69892696	     10.77448338	      0.00000000	     19.49368027	     -6.35268812	     -7.37988115	    -12.04443634	     -6.13807622	      9.51009174	      0.00000000	    -18.62125377	      2.23408539	      1.63007047
